GLOBALSTAR M075         
1 37192U 10054E   25358.21427079 -.00000088  00000+0  85706-4 0  9993
2 37192  52.0022 322.9423 0000480 109.7567 352.3949 12.62261317699849
GLOBALSTAR M073         
1 37193U 10054F   26008.48007361 -.00000105  00000+0 -53553-5 0  9991
2 37193  52.0034 190.4438 0001219  80.6425 303.3011 12.62268894703768
GLOBALSTAR M083         
1 37739U 11033A   26008.66872094 -.00000083  00000+0  11397-3 0  9990
2 37739  51.9848 138.3149 0000927  93.1639  10.3198 12.62266421672801
GLOBALSTAR M088         
1 37740U 11033B   26008.38546616 -.00000086  00000+0  96764-4 0  9994
2 37740  52.0229  45.2179 0000394 134.6831 240.5372 12.62271468668319
GLOBALSTAR M091         
1 37741U 11033C   26008.74987353 -.00000102  00000+0  10327-4 0  9992
2 37741  52.0022   7.3120 0000141  50.6891 120.3573 12.62268475669143
GLOBALSTAR M085         
1 37742U 11033D   26008.57834675 -.00000078  00000+0  14115-3 0  9992
2 37742  52.0149 318.9869 0000536  28.0534 143.7520 12.62267844669630
GLOBALSTAR M081         
1 37743U 11033E   25351.59018587 -.00000087  00000+0  92331-4 0  9998
2 37743  51.9980  28.5496 0000222  94.7932  71.3857 12.62270971667009
GLOBALSTAR M089         
1 37744U 11033F   26009.00522912 -.00000085  00000+0  10688-3 0  9990
2 37744  51.9937 274.4946 0000965  80.0306 293.3594 12.62263396670686
